IRIDIUM 7               
1 24793U 97020B   24118.89056219  .00000847  00000+0  28981-3 0  9998
2 24793  86.3989 350.9021 0002393  83.3630 276.7839 14.35180016412312
IRIDIUM 5               
1 24795U 97020D   24119.16894512  .00011874  00000+0  11453-2 0  9994
2 24795  86.3893 273.8540 0123196 179.1420 181.0041 14.87155342423667
IRIDIUM 4               
1 24796U 97020E   24119.55686596  .00000735  00000+0  24578-3 0  9996
2 24796  86.3978 347.7776 0002309  89.0881 271.0580 14.36103640412974
IRIDIUM 914             
1 24836U 97030A   24118.95592367  .00001065  00000+0  33259-3 0  9990
2 24836  86.3971 357.8469 0003400 115.1916 244.9636 14.39954225547354
IRIDIUM 16              
1 24841U 97030F   24118.78865792  .00001091  00000+0  35569-3 0  9997
2 24841  86.4084  19.7518 0002895  39.6625 320.4784 14.37847497407291
IRIDIUM 911             
1 24842U 97030G   24119.43131145  .00001516  00000+0  41554-3 0  9992
2 24842  86.4508  18.6518 0016010  46.2114 314.0410 14.46470500415080
IRIDIUM 17              
1 24870U 97034B   24118.86530636  .00001359  00000+0  45279-3 0  9994
2 24870  86.3984  49.3190 0001106  43.8743 316.2542 14.36938491403923
IRIDIUM 920             
1 24871U 97034C   24119.48994007  .00000982  00000+0  30137-3 0  9998
2 24871  86.4020  29.2565 0012320  20.2632 339.9054 14.40661056407115
